*******************************************************************************
Ephemeris / WWW_USER Mon Mar 24 09:25:20 2025 Pasadena, USA      / Horizons    
*******************************************************************************
Target body name: (2017 UW51)                     {source: JPL#9}
Center body name: Earth (399)                     {source: DE441}
Center-site name: Mauna Kea
*******************************************************************************
Start time      : A.D. 2018-Sep-13 04:36:00.0000 UT      
Stop  time      : A.D. 2018-Sep-13 15:59:00.0000 UT      
Step-size       : 1 minutes
*******************************************************************************
Target pole/equ : undefined
Target radii    : undefined                                                    
Center geodetic : 204.5278, 19.8260847, 4.21024   {E-lon(deg),Lat(deg),Alt(km)}
Center cylindric: 204.5278, 6006.35451, 2151.0229 {E-lon(deg),Dxy(km),Dz(km)}
Center pole/equ : ITRF93                          {East-longitude positive}
Center radii    : 6378.137, 6378.137, 6356.752 km {Equator_a, b, pole_c}       
Target primary  : Sun
Vis. interferer : MOON (R_eq= 1737.400) km        {source: DE441}
Rel. light bend : Sun                             {source: DE441}
Rel. lght bnd GM: 1.3271E+11 km^3/s^2                                          
Small-body perts: Yes                             {source: SB441-N16}
Atmos refraction: NO (AIRLESS)
RA format       : HMS
Time format     : CAL 
Calendar mode   : Mixed Julian/Gregorian
RTS-only print  : NO       
EOP file        : eop.250321.p250617                                           
EOP coverage    : DATA-BASED 1962-JAN-20 TO 2025-MAR-21. PREDICTS-> 2025-JUN-16
Units conversion: 1 au= 149597870.700 km, c= 299792.458 km/s, 1 day= 86400.0 s 
Table cut-offs 1: Elevation (-90.0deg=NO ),Airmass (>38.000=NO), Daylight (YES)
Table cut-offs 2: Solar elongation (  0.0,180.0=NO ),Local Hour Angle( 0.0=NO )
Table cut-offs 3: RA/DEC angular rate (     0.0=NO )                           
*******************************************************************************
Initial IAU76/J2000 heliocentric ecliptic osculating elements (au, days, deg.):
  EPOCH=  2458075.5 ! 2017-Nov-18.00 (TDB)         Residual RMS= .20188        
   EC= .977323227404683    QR= 3.132710376610715   TP= 2458155.1551369466      
   OM= 241.7154477774366   W=  216.6888678209022   IN= 144.2025603349357       
  Equivalent ICRF heliocentric cartesian coordinates (au, au/d):
   X= 2.139353138138251E+00  Y= 2.375029509283225E+00  Z= 4.232007070438896E-01
  VX= 5.707101564767909E-03 VY=-6.350221743649190E-03 VZ=-1.041670648532765E-02
Asteroid physical parameters (km, seconds, rotational period in hours):        
   GM= n.a.                RAD= n.a.               ROTPER= n.a.                
   H= 15.3                 G= .150                 B-V= n.a.                   
                           ALBEDO= n.a.            STYP= n.a.                  
*******************************************************************************
 Date__(UT)__HR:MN     R.A._________(ICRF)_________DEC
******************************************************
$$SOE
 2018-Sep-13 10:45     23 55 27.374156 -52 38 42.83455
 2018-Sep-13 10:46     23 55 27.242078 -52 38 43.36955
 2018-Sep-13 10:47     23 55 27.109999 -52 38 43.90449
 2018-Sep-13 10:48     23 55 26.977920 -52 38 44.43937
 2018-Sep-13 10:49  t  23 55 26.845840 -52 38 44.97419
 2018-Sep-13 10:50     23 55 26.713761 -52 38 45.50895
 2018-Sep-13 10:51     23 55 26.581680 -52 38 46.04364
 2018-Sep-13 10:52     23 55 26.449600 -52 38 46.57828
 2018-Sep-13 10:53     23 55 26.317519 -52 38 47.11286
 2018-Sep-13 10:54     23 55 26.185437 -52 38 47.64738
 2018-Sep-13 10:55     23 55 26.053355 -52 38 48.18184
 2018-Sep-13 10:56     23 55 25.921274 -52 38 48.71623
 2018-Sep-13 10:57     23 55 25.789191 -52 38 49.25057
 2018-Sep-13 10:58     23 55 25.657109 -52 38 49.78485
 2018-Sep-13 10:59     23 55 25.525026 -52 38 50.31906
 2018-Sep-13 11:00     23 55 25.392944 -52 38 50.85322
 2018-Sep-13 11:01     23 55 25.260861 -52 38 51.38732
 2018-Sep-13 11:02     23 55 25.128778 -52 38 51.92135
 2018-Sep-13 11:03     23 55 24.996694 -52 38 52.45533
 2018-Sep-13 11:04     23 55 24.864611 -52 38 52.98924
 2018-Sep-13 11:05     23 55 24.732528 -52 38 53.52310
 2018-Sep-13 11:06     23 55 24.600445 -52 38 54.05689
 2018-Sep-13 11:07     23 55 24.468361 -52 38 54.59063
 2018-Sep-13 11:08     23 55 24.336278 -52 38 55.12430
 2018-Sep-13 11:09     23 55 24.204195 -52 38 55.65792
 2018-Sep-13 11:10     23 55 24.072112 -52 38 56.19147
 2018-Sep-13 11:11     23 55 23.940029 -52 38 56.72496
 2018-Sep-13 11:12     23 55 23.807946 -52 38 57.25840
 2018-Sep-13 11:13     23 55 23.675863 -52 38 57.79177
 2018-Sep-13 11:14     23 55 23.543780 -52 38 58.32509
 2018-Sep-13 11:15     23 55 23.411698 -52 38 58.85834
 2018-Sep-13 11:16     23 55 23.279616 -52 38 59.39153
 2018-Sep-13 11:17     23 55 23.147534 -52 38 59.92467
 2018-Sep-13 11:18     23 55 23.015453 -52 39 00.45774
 2018-Sep-13 11:19     23 55 22.883371 -52 39 00.99076
 2018-Sep-13 11:20     23 55 22.751290 -52 39 01.52371
 2018-Sep-13 11:21     23 55 22.619210 -52 39 02.05660
 2018-Sep-13 11:22     23 55 22.487130 -52 39 02.58944
 2018-Sep-13 11:23     23 55 22.355050 -52 39 03.12221
 2018-Sep-13 11:24     23 55 22.222971 -52 39 03.65493
 2018-Sep-13 11:25     23 55 22.090892 -52 39 04.18758
 2018-Sep-13 11:26     23 55 21.958813 -52 39 04.72017
 2018-Sep-13 11:27     23 55 21.826735 -52 39 05.25271
 2018-Sep-13 11:28     23 55 21.694658 -52 39 05.78519
 2018-Sep-13 11:29     23 55 21.562581 -52 39 06.31760
 2018-Sep-13 11:30     23 55 21.430505 -52 39 06.84996
 2018-Sep-13 11:31     23 55 21.298429 -52 39 07.38225
 2018-Sep-13 11:32     23 55 21.166354 -52 39 07.91449
 2018-Sep-13 11:33     23 55 21.034280 -52 39 08.44667
 2018-Sep-13 11:34     23 55 20.902206 -52 39 08.97878
 2018-Sep-13 11:35     23 55 20.770134 -52 39 09.51084
 2018-Sep-13 11:36     23 55 20.638061 -52 39 10.04284
 2018-Sep-13 11:37     23 55 20.505990 -52 39 10.57478
 2018-Sep-13 11:38     23 55 20.373919 -52 39 11.10666
 2018-Sep-13 11:39     23 55 20.241850 -52 39 11.63848
 2018-Sep-13 11:40     23 55 20.109781 -52 39 12.17024
 2018-Sep-13 11:41     23 55 19.977712 -52 39 12.70194
 2018-Sep-13 11:42     23 55 19.845645 -52 39 13.23359
 2018-Sep-13 11:43     23 55 19.713579 -52 39 13.76517
 2018-Sep-13 11:44     23 55 19.581513 -52 39 14.29670
 2018-Sep-13 11:45     23 55 19.449449 -52 39 14.82816
 2018-Sep-13 11:46     23 55 19.317385 -52 39 15.35957
 2018-Sep-13 11:47     23 55 19.185323 -52 39 15.89092
 2018-Sep-13 11:48     23 55 19.053262 -52 39 16.42220
 2018-Sep-13 11:49     23 55 18.921201 -52 39 16.95343
 2018-Sep-13 11:50     23 55 18.789142 -52 39 17.48460
 2018-Sep-13 11:51     23 55 18.657084 -52 39 18.01572
 2018-Sep-13 11:52     23 55 18.525027 -52 39 18.54677
 2018-Sep-13 11:53     23 55 18.392971 -52 39 19.07776
 2018-Sep-13 11:54     23 55 18.260916 -52 39 19.60870
 2018-Sep-13 11:55     23 55 18.128863 -52 39 20.13958
 2018-Sep-13 11:56     23 55 17.996810 -52 39 20.67039
 2018-Sep-13 11:57     23 55 17.864759 -52 39 21.20115
 2018-Sep-13 11:58     23 55 17.732710 -52 39 21.73186
 2018-Sep-13 11:59     23 55 17.600661 -52 39 22.26250
 2018-Sep-13 12:00     23 55 17.468614 -52 39 22.79308
 2018-Sep-13 12:01     23 55 17.336568 -52 39 23.32361
 2018-Sep-13 12:02     23 55 17.204524 -52 39 23.85408
 2018-Sep-13 12:03     23 55 17.072481 -52 39 24.38449
 2018-Sep-13 12:04     23 55 16.940439 -52 39 24.91484
 2018-Sep-13 12:05     23 55 16.808399 -52 39 25.44514
 2018-Sep-13 12:06     23 55 16.676360 -52 39 25.97537
 2018-Sep-13 12:07     23 55 16.544323 -52 39 26.50555
 2018-Sep-13 12:08     23 55 16.412288 -52 39 27.03567
 2018-Sep-13 12:09     23 55 16.280253 -52 39 27.56573
 2018-Sep-13 12:10     23 55 16.148221 -52 39 28.09574
 2018-Sep-13 12:11     23 55 16.016190 -52 39 28.62568
 2018-Sep-13 12:12     23 55 15.884161 -52 39 29.15557
 2018-Sep-13 12:13     23 55 15.752133 -52 39 29.68541
 2018-Sep-13 12:14     23 55 15.620107 -52 39 30.21518
 2018-Sep-13 12:15     23 55 15.488082 -52 39 30.74490
 2018-Sep-13 12:16     23 55 15.356060 -52 39 31.27456
 2018-Sep-13 12:17     23 55 15.224039 -52 39 31.80416
 2018-Sep-13 12:18     23 55 15.092020 -52 39 32.33370
 2018-Sep-13 12:19     23 55 14.960002 -52 39 32.86319
 2018-Sep-13 12:20     23 55 14.827987 -52 39 33.39262
 2018-Sep-13 12:21     23 55 14.695973 -52 39 33.92200
 2018-Sep-13 12:22     23 55 14.563961 -52 39 34.45131
 2018-Sep-13 12:23     23 55 14.431951 -52 39 34.98057
 2018-Sep-13 12:24     23 55 14.299943 -52 39 35.50978
 2018-Sep-13 12:25     23 55 14.167937 -52 39 36.03892
 2018-Sep-13 12:26     23 55 14.035932 -52 39 36.56801
 2018-Sep-13 12:27     23 55 13.903930 -52 39 37.09705
 2018-Sep-13 12:28     23 55 13.771930 -52 39 37.62602
 2018-Sep-13 12:29     23 55 13.639932 -52 39 38.15494
 2018-Sep-13 12:30     23 55 13.507935 -52 39 38.68381
 2018-Sep-13 12:31     23 55 13.375941 -52 39 39.21262
 2018-Sep-13 12:32     23 55 13.243949 -52 39 39.74137
 2018-Sep-13 12:33     23 55 13.111959 -52 39 40.27006
 2018-Sep-13 12:34     23 55 12.979971 -52 39 40.79870
 2018-Sep-13 12:35     23 55 12.847985 -52 39 41.32729
 2018-Sep-13 12:36     23 55 12.716002 -52 39 41.85582
 2018-Sep-13 12:37     23 55 12.584020 -52 39 42.38429
 2018-Sep-13 12:38     23 55 12.452041 -52 39 42.91270
 2018-Sep-13 12:39     23 55 12.320064 -52 39 43.44106
 2018-Sep-13 12:40     23 55 12.188090 -52 39 43.96937
 2018-Sep-13 12:41     23 55 12.056117 -52 39 44.49762
 2018-Sep-13 12:42     23 55 11.924147 -52 39 45.02581
 2018-Sep-13 12:43     23 55 11.792180 -52 39 45.55395
 2018-Sep-13 12:44     23 55 11.660214 -52 39 46.08204
 2018-Sep-13 12:45     23 55 11.528251 -52 39 46.61007
 2018-Sep-13 12:46     23 55 11.396291 -52 39 47.13804
 2018-Sep-13 12:47     23 55 11.264332 -52 39 47.66596
